[{"OBJECT_NAME":"GEOSCAN 6 (RS92S6)","OBJECT_ID":"2025-155D","EPOCH":"2026-03-09T21:52:39.201312","MEAN_MOTION":15.27985277,"ECCENTRICITY":0.00087677,"INCLINATION":97.4466,"RA_OF_ASC_NODE":37.2933,"ARG_OF_PERICENTER":153.7679,"MEAN_ANOMALY":206.4006,"EPHEMERIS_TYPE":0,"CLASSIFICATION_TYPE":"U","NORAD_CAT_ID":64879,"ELEMENT_SET_NO":999,"REV_AT_EPOCH":6559,"BSTAR":0.00053762354,"MEAN_MOTION_DOT":0.00014633,"MEAN_MOTION_DDOT":0},{"OBJECT_NAME":"STARLINK-35394","OBJECT_ID":"2025-232U","EPOCH":"2026-03-09T12:40:25.318848","MEAN_MOTION":15.30199264,"ECCENTRICITY":0.000127,"INCLINATION":53.1578,"RA_OF_ASC_NODE":104.458,"ARG_OF_PERICENTER":93.356,"MEAN_ANOMALY":266.7586,"EPHEMERIS_TYPE":0,"CLASSIFICATION_TYPE":"U","NORAD_CAT_ID":66023,"ELEMENT_SET_NO":999,"REV_AT_EPOCH":2341,"BSTAR":0.0011406435,"MEAN_MOTION_DOT":0.00033575,"MEAN_MOTION_DDOT":0}]
